[{"OBJECT_NAME":"NANOACE","OBJECT_ID":"2017-042V","EPOCH":"2026-03-09T10:49:24.913920","MEAN_MOTION":15.22047259,"ECCENTRICITY":0.0004338,"INCLINATION":97.3683,"RA_OF_ASC_NODE":244.5146,"ARG_OF_PERICENTER":18.2396,"MEAN_ANOMALY":341.8995,"EPHEMERIS_TYPE":0,"CLASSIFICATION_TYPE":"U","NORAD_CAT_ID":42844,"ELEMENT_SET_NO":999,"REV_AT_EPOCH":47289,"BSTAR":0.00068471795,"MEAN_MOTION_DOT":0.0001561,"MEAN_MOTION_DDOT":0},{"OBJECT_NAME":"YAOGAN-37","OBJECT_ID":"2023-006C","EPOCH":"2026-03-09T23:15:16.754688","MEAN_MOTION":15.16132405,"ECCENTRICITY":0.00165574,"INCLINATION":43.1974,"RA_OF_ASC_NODE":311.9793,"ARG_OF_PERICENTER":108.2694,"MEAN_ANOMALY":251.9959,"EPHEMERIS_TYPE":0,"CLASSIFICATION_TYPE":"U","NORAD_CAT_ID":55244,"ELEMENT_SET_NO":999,"REV_AT_EPOCH":17481,"BSTAR":0.00034068516,"MEAN_MOTION_DOT":6.475e-5,"MEAN_MOTION_DDOT":0}]
